STARLINK-2745           
1 48671U 21044AK  26068.38936811  .00000574  00000+0  57388-4 0  9998
2 48671  53.0559 113.2738 0001397  88.8606 271.2543 15.06405086263792
DISKSAT B               
1 67220U 25305B   26068.81497770  .00012481  00000+0  82401-3 0  9990
2 67220  45.0018 250.2098 0003783 311.4052  48.6498 15.07484556 12311
